1 08820U 76039A   03122.70124210  .00000010  00000-0  10000-3 0  9342
2 08820 109.8108 166.0371 0044428 311.2008  48.4925  6.38664535374156
